[{"OBJECT_NAME":"AEROCUBE 6A","OBJECT_ID":"2014-033AM","EPOCH":"2026-03-03T05:53:51.993888","MEAN_MOTION":14.96727919,"ECCENTRICITY":0.00393977,"INCLINATION":97.7109,"RA_OF_ASC_NODE":230.4769,"ARG_OF_PERICENTER":11.2159,"MEAN_ANOMALY":348.9932,"EPHEMERIS_TYPE":0,"CLASSIFICATION_TYPE":"U","NORAD_CAT_ID":40045,"ELEMENT_SET_NO":999,"REV_AT_EPOCH":63076,"BSTAR":0.00067207207,"MEAN_MOTION_DOT":7.746e-5,"MEAN_MOTION_DDOT":0},{"OBJECT_NAME":"AEROCUBE 6B","OBJECT_ID":"2014-033AN","EPOCH":"2026-03-03T09:57:57.015936","MEAN_MOTION":14.98114752,"ECCENTRICITY":0.00377128,"INCLINATION":97.7106,"RA_OF_ASC_NODE":230.2247,"ARG_OF_PERICENTER":3.6754,"MEAN_ANOMALY":356.4738,"EPHEMERIS_TYPE":0,"CLASSIFICATION_TYPE":"U","NORAD_CAT_ID":40046,"ELEMENT_SET_NO":999,"REV_AT_EPOCH":63091,"BSTAR":0.00078060153,"MEAN_MOTION_DOT":9.326e-5,"MEAN_MOTION_DDOT":0},{"OBJECT_NAME":"CANX-4","OBJECT_ID":"2014-034C","EPOCH":"2026-03-03T16:45:19.143072","MEAN_MOTION":14.81043339,"ECCENTRICITY":0.0012756,"INCLINATION":98.3287,"RA_OF_ASC_NODE":294.0555,"ARG_OF_PERICENTER":356.0325,"MEAN_ANOMALY":4.0783,"EPHEMERIS_TYPE":0,"CLASSIFICATION_TYPE":"U","NORAD_CAT_ID":40055,"ELEMENT_SET_NO":999,"REV_AT_EPOCH":62891,"BSTAR":0.00020327,"MEAN_MOTION_DOT":1.521e-5,"MEAN_MOTION_DDOT":0},{"OBJECT_NAME":"CANX-5","OBJECT_ID":"2014-034D","EPOCH":"2026-03-03T16:44:48.077952","MEAN_MOTION":14.81060114,"ECCENTRICITY":0.0012751,"INCLINATION":98.3289,"RA_OF_ASC_NODE":294.0926,"ARG_OF_PERICENTER":356.2651,"MEAN_ANOMALY":3.8462,"EPHEMERIS_TYPE":0,"CLASSIFICATION_TYPE":"U","NORAD_CAT_ID":40056,"ELEMENT_SET_NO":999,"REV_AT_EPOCH":61972,"BSTAR":0.0002051,"MEAN_MOTION_DOT":1.535e-5,"MEAN_MOTION_DDOT":0},{"OBJECT_NAME":"UKUBE-1","OBJECT_ID":"2014-037F","EPOCH":"2026-03-03T12:39:59.681376","MEAN_MOTION":15.1162333,"ECCENTRICITY":0.0002618,"INCLINATION":98.422,"RA_OF_ASC_NODE":54.8631,"ARG_OF_PERICENTER":118.8048,"MEAN_ANOMALY":241.3443,"EPHEMERIS_TYPE":0,"CLASSIFICATION_TYPE":"U","NORAD_CAT_ID":40074,"ELEMENT_SET_NO":999,"REV_AT_EPOCH":63258,"BSTAR":0.0008387,"MEAN_MOTION_DOT":0.00014194,"MEAN_MOTION_DDOT":0},{"OBJECT_NAME":"BRITE-PL2 (HEWELIUSZ)","OBJECT_ID":"2014-049B","EPOCH":"2026-03-03T18:43:02.756064","MEAN_MOTION":14.94142812,"ECCENTRICITY":0.0015504,"INCLINATION":97.8981,"RA_OF_ASC_NODE":174.0764,"ARG_OF_PERICENTER":99.559,"MEAN_ANOMALY":260.7382,"EPHEMERIS_TYPE":0,"CLASSIFICATION_TYPE":"U","NORAD_CAT_ID":40119,"ELEMENT_SET_NO":999,"REV_AT_EPOCH":62570,"BSTAR":0.00034734,"MEAN_MOTION_DOT":3.666e-5,"MEAN_MOTION_DDOT":0},{"OBJECT_NAME":"AEROCUBE 5C","OBJECT_ID":"2015-058B","EPOCH":"2026-03-03T14:34:54.880896","MEAN_MOTION":14.90789421,"ECCENTRICITY":0.0131072,"INCLINATION":64.7661,"RA_OF_ASC_NODE":230.8813,"ARG_OF_PERICENTER":104.9111,"MEAN_ANOMALY":256.6557,"EPHEMERIS_TYPE":0,"CLASSIFICATION_TYPE":"U","NORAD_CAT_ID":40965,"ELEMENT_SET_NO":999,"REV_AT_EPOCH":34991,"BSTAR":0.00049167,"MEAN_MOTION_DOT":5.544e-5,"MEAN_MOTION_DDOT":0},{"OBJECT_NAME":"AEROCUBE 7","OBJECT_ID":"2015-058C","EPOCH":"2026-03-03T19:55:25.982976","MEAN_MOTION":14.94814589,"ECCENTRICITY":0.0121026,"INCLINATION":64.7619,"RA_OF_ASC_NODE":214.593,"ARG_OF_PERICENTER":103.9657,"MEAN_ANOMALY":257.495,"EPHEMERIS_TYPE":0,"CLASSIFICATION_TYPE":"U","NORAD_CAT_ID":40966,"ELEMENT_SET_NO":999,"REV_AT_EPOCH":35020,"BSTAR":0.000619,"MEAN_MOTION_DOT":7.652e-5,"MEAN_MOTION_DDOT":0},{"OBJECT_NAME":"FOX-1A (AO-85)","OBJECT_ID":"2015-058D","EPOCH":"2026-03-03T18:06:19.307232","MEAN_MOTION":14.90292727,"ECCENTRICITY":0.0129213,"INCLINATION":64.7736,"RA_OF_ASC_NODE":246.4691,"ARG_OF_PERICENTER":98.322,"MEAN_ANOMALY":263.2567,"EPHEMERIS_TYPE":0,"CLASSIFICATION_TYPE":"U","NORAD_CAT_ID":40967,"ELEMENT_SET_NO":999,"REV_AT_EPOCH":9785,"BSTAR":0.00047771,"MEAN_MOTION_DOT":5.284e-5,"MEAN_MOTION_DDOT":0},{"OBJECT_NAME":"SINOD-D 1","OBJECT_ID":"2015-058E","EPOCH":"2026-03-03T18:04:36.397056","MEAN_MOTION":14.94965901,"ECCENTRICITY":0.0117538,"INCLINATION":64.7741,"RA_OF_ASC_NODE":228.8585,"ARG_OF_PERICENTER":95.6785,"MEAN_ANOMALY":265.7745,"EPHEMERIS_TYPE":0,"CLASSIFICATION_TYPE":"U","NORAD_CAT_ID":40968,"ELEMENT_SET_NO":999,"REV_AT_EPOCH":10089,"BSTAR":0.00062588,"MEAN_MOTION_DOT":7.706e-5,"MEAN_MOTION_DDOT":0},{"OBJECT_NAME":"SNAP-3 ALICE","OBJECT_ID":"2015-058G","EPOCH":"2026-03-03T13:09:29.466144","MEAN_MOTION":15.42765711,"ECCENTRICITY":0.0037421,"INCLINATION":64.7558,"RA_OF_ASC_NODE":104.024,"ARG_OF_PERICENTER":71.5187,"MEAN_ANOMALY":289.0012,"EPHEMERIS_TYPE":0,"CLASSIFICATION_TYPE":"U","NORAD_CAT_ID":40970,"ELEMENT_SET_NO":999,"REV_AT_EPOCH":10050,"BSTAR":0.0015828,"MEAN_MOTION_DOT":0.00071844,"MEAN_MOTION_DDOT":0},{"OBJECT_NAME":"LMRST-SAT","OBJECT_ID":"2015-058H","EPOCH":"2026-03-03T18:00:40.802400","MEAN_MOTION":14.89925265,"ECCENTRICITY":0.0131346,"INCLINATION":64.7743,"RA_OF_ASC_NODE":242.6234,"ARG_OF_PERICENTER":100.2781,"MEAN_ANOMALY":261.317,"EPHEMERIS_TYPE":0,"CLASSIFICATION_TYPE":"U","NORAD_CAT_ID":40971,"ELEMENT_SET_NO":999,"REV_AT_EPOCH":9784,"BSTAR":0.00048429,"MEAN_MOTION_DOT":5.334e-5,"MEAN_MOTION_DDOT":0},{"OBJECT_NAME":"SNAP-3 EDDIE","OBJECT_ID":"2015-058J","EPOCH":"2026-03-03T10:03:56.364768","MEAN_MOTION":15.43727747,"ECCENTRICITY":0.00387399,"INCLINATION":64.7481,"RA_OF_ASC_NODE":95.8867,"ARG_OF_PERICENTER":76.3672,"MEAN_ANOMALY":284.1775,"EPHEMERIS_TYPE":0,"CLASSIFICATION_TYPE":"U","NORAD_CAT_ID":40972,"ELEMENT_SET_NO":999,"REV_AT_EPOCH":10261,"BSTAR":0.0012487083,"MEAN_MOTION_DOT":0.00058525,"MEAN_MOTION_DDOT":0},{"OBJECT_NAME":"PROPCUBE 3","OBJECT_ID":"2015-058K","EPOCH":"2026-03-03T15:19:28.642080","MEAN_MOTION":14.93449314,"ECCENTRICITY":0.0123922,"INCLINATION":64.7677,"RA_OF_ASC_NODE":222.1107,"ARG_OF_PERICENTER":102.1036,"MEAN_ANOMALY":259.3993,"EPHEMERIS_TYPE":0,"CLASSIFICATION_TYPE":"U","NORAD_CAT_ID":40973,"ELEMENT_SET_NO":999,"REV_AT_EPOCH":9903,"BSTAR":0.00055721,"MEAN_MOTION_DOT":6.663e-5,"MEAN_MOTION_DDOT":0},{"OBJECT_NAME":"BISONSAT","OBJECT_ID":"2015-058L","EPOCH":"2026-03-03T16:17:31.514208","MEAN_MOTION":15.13608851,"ECCENTRICITY":0.0079524,"INCLINATION":64.7608,"RA_OF_ASC_NODE":154.1177,"ARG_OF_PERICENTER":93.5629,"MEAN_ANOMALY":267.4594,"EPHEMERIS_TYPE":0,"CLASSIFICATION_TYPE":"U","NORAD_CAT_ID":40974,"ELEMENT_SET_NO":999,"REV_AT_EPOCH":9963,"BSTAR":0.00084523,"MEAN_MOTION_DOT":0.00016321,"MEAN_MOTION_DDOT":0},{"OBJECT_NAME":"SNAP-3 JIMI","OBJECT_ID":"2015-058M","EPOCH":"2026-03-03T16:51:11.206656","MEAN_MOTION":15.01023199,"ECCENTRICITY":0.0105878,"INCLINATION":64.7658,"RA_OF_ASC_NODE":193.2071,"ARG_OF_PERICENTER":99.0626,"MEAN_ANOMALY":262.249,"EPHEMERIS_TYPE":0,"CLASSIFICATION_TYPE":"U","NORAD_CAT_ID":40975,"ELEMENT_SET_NO":999,"REV_AT_EPOCH":9838,"BSTAR":0.00069189,"MEAN_MOTION_DOT":9.828e-5,"MEAN_MOTION_DDOT":0},{"OBJECT_NAME":"PROPCUBE 1 (FLORA)","OBJECT_ID":"2015-058N","EPOCH":"2026-03-03T19:27:28.615968","MEAN_MOTION":14.88580055,"ECCENTRICITY":0.0130481,"INCLINATION":64.773,"RA_OF_ASC_NODE":261.6698,"ARG_OF_PERICENTER":102.5074,"MEAN_ANOMALY":259.067,"EPHEMERIS_TYPE":0,"CLASSIFICATION_TYPE":"U","NORAD_CAT_ID":40976,"ELEMENT_SET_NO":999,"REV_AT_EPOCH":10057,"BSTAR":0.00044085,"MEAN_MOTION_DOT":4.655e-5,"MEAN_MOTION_DDOT":0}]
