AEROCUBE 6A             
1 40045U 14033AM  26062.24574067  .00007746  00000+0  67207-3 0  9993
2 40045  97.7109 230.4769 0039397  11.2159 348.9932 14.96727919630764
AEROCUBE 6B             
1 40046U 14033AN  26062.41524324  .00009326  00000+0  78060-3 0  9999
2 40046  97.7106 230.2247 0037712   3.6754 356.4738 14.98114752630918
CANX-4                  
1 40055U 14034C   26062.69813823  .00001521  00000+0  20327-3 0  9997
2 40055  98.3287 294.0555 0012756 356.0325   4.0783 14.81043339628912
CANX-5                  
1 40056U 14034D   26062.69777868  .00001535  00000+0  20510-3 0  9995
2 40056  98.3289 294.0926 0012751 356.2651   3.8462 14.81060114619726
UKUBE-1                 
1 40074U 14037F   26062.52777409  .00014194  00000+0  83870-3 0  9994
2 40074  98.4220  54.8631 0002618 118.8048 241.3443 15.11623330632586
BRITE-PL2 (HEWELIUSZ)   
1 40119U 14049B   26062.77989301  .00003666  00000+0  34734-3 0  9997
2 40119  97.8981 174.0764 0015504  99.5590 260.7382 14.94142812625704
AEROCUBE 5C             
1 40965U 15058B   26062.60757964  .00005544  00000+0  49167-3 0  9990
2 40965  64.7661 230.8813 0131072 104.9111 256.6557 14.90789421349919
AEROCUBE 7              
1 40966U 15058C   26062.83016184  .00007652  00000+0  61900-3 0  9999
2 40966  64.7619 214.5930 0121026 103.9657 257.4950 14.94814589350202
FOX-1A (AO-85)          
1 40967U 15058D   26062.75439013  .00005284  00000+0  47771-3 0  9990
2 40967  64.7736 246.4691 0129213  98.3220 263.2567 14.90292727 97858
SINOD-D 1               
1 40968U 15058E   26062.75319904  .00007706  00000+0  62588-3 0  9991
2 40968  64.7741 228.8585 0117538  95.6785 265.7745 14.94965901100893
SNAP-3 ALICE            
1 40970U 15058G   26062.54825771  .00071844  00000+0  15828-2 0  9993
2 40970  64.7558 104.0240 0037421  71.5187 289.0012 15.42765711100501
LMRST-SAT               
1 40971U 15058H   26062.75047225  .00005334  00000+0  48429-3 0  9992
2 40971  64.7743 242.6234 0131346 100.2781 261.3170 14.89925265 97843
SNAP-3 EDDIE            
1 40972U 15058J   26062.41940237  .00058525  00000+0  12487-2 0  9995
2 40972  64.7481  95.8867 0038739  76.3672 284.1775 15.43727747102619
PROPCUBE 3              
1 40973U 15058K   26062.63852595  .00006663  00000+0  55721-3 0  9994
2 40973  64.7677 222.1107 0123922 102.1036 259.3993 14.93449314 99032
BISONSAT                
1 40974U 15058L   26062.67883697  .00016321  00000+0  84523-3 0  9990
2 40974  64.7608 154.1177 0079524  93.5629 267.4594 15.13608851 99636
SNAP-3 JIMI             
1 40975U 15058M   26062.70221304  .00009828  00000+0  69189-3 0  9991
2 40975  64.7658 193.2071 0105878  99.0626 262.2490 15.01023199 98381
PROPCUBE 1 (FLORA)      
1 40976U 15058N   26062.81074787  .00004655  00000+0  44085-3 0  9996
2 40976  64.7730 261.6698 0130481 102.5074 259.0670 14.88580055100575
